{
  "type": "FeatureCollection",
  "features": [
    {
      "type": "Feature",
      "properties": {
        "name": "Norwegian Scenic Route Geiranger–Trollstigen",
        "route": "63",
        "length_km": 104,
        "geometry_note": "Simplified authoring line through official route endpoints and viewpoints. The official GPX remains the authoritative navigation track."
      },
      "geometry": {
        "type": "LineString",
        "coordinates": [
          [
            7.393992,
            62.014219
          ],
          [
            7.34,
            62.03
          ],
          [
            7.285,
            62.052
          ],
          [
            7.245,
            62.073
          ],
          [
            7.223597,
            62.089302
          ],
          [
            7.2059,
            62.1006
          ],
          [
            7.187,
            62.112
          ],
          [
            7.16721732,
            62.12626334
          ],
          [
            7.18,
            62.153
          ],
          [
            7.205,
            62.185
          ],
          [
            7.198,
            62.22
          ],
          [
            7.1718,
            62.26246
          ],
          [
            7.187762,
            62.284513
          ],
          [
            7.236,
            62.3
          ],
          [
            7.2833,
            62.3167
          ],
          [
            7.345,
            62.326
          ],
          [
            7.41,
            62.33
          ],
          [
            7.471132,
            62.330758
          ],
          [
            7.515,
            62.349
          ],
          [
            7.55,
            62.374
          ],
          [
            7.585,
            62.398
          ],
          [
            7.62,
            62.425
          ],
          [
            7.663136,
            62.453301
          ],
          [
            7.685,
            62.475
          ],
          [
            7.71,
            62.505
          ],
          [
            7.736939,
            62.53207
          ]
        ]
      }
    }
  ]
}
